{"type":"FeatureCollection","features":[{"type":"Feature","id":0,"geometry":{"type":"LineString","coordinates":[[-64.987736999999996,-17.176224999999999],[-64.970872,-17.164992999999999],[-64.943340000000006,-17.148961],[-64.924221000000003,-17.133965],[-64.910149000000004,-17.119482999999999],[-64.907309999999995,-17.111415999999998],[-64.899421000000004,-17.101216999999998],[-64.896021000000005,-17.092613],[-64.885861000000006,-17.075420999999999],[-64.874606999999997,-17.063618000000002]]},"properties":{"FID":0,"VALUE":0,"RED_TIPO":"V","PAVIMENTO":0,"RIPIO":0,"TIERRA":0,"VIASP":5,"VIPESOS":16,"ORIG_FID":32}},{"type":"Feature","id":1,"geometry":{"type":"LineString","coordinates":[[-63.729143999999998,-17.411463999999999],[-63.724947999999998,-17.396519000000001],[-63.726894999999999,-17.361318000000001],[-63.719313999999997,-17.358273000000001],[-63.712363000000003,-17.357655999999999],[-63.697859999999999,-17.335177999999999],[-63.692186,-17.326671999999999],[-63.666929000000003,-17.314492999999999],[-63.648592000000001,-17.320533000000001],[-63.644174999999997,-17.316884000000002],[-63.643566,-17.304742999999998],[-63.636626999999997,-17.298660999999999],[-63.622734000000001,-17.294388000000001],[-63.625301999999998,-17.273147999999999],[-63.640523999999999,-17.241610000000001],[-63.641801000000001,-17.234328999999999],[-63.636758999999998,-17.228249999999999],[-63.640616999999999,-17.191229],[-63.634329999999999,-17.176649999999999],[-63.605392000000002,-17.122572999999999],[-63.606963999999998,-17.111466]]},"properties":{"FID":1,"VALUE":0,"RED_TIPO":"V","PAVIMENTO":0,"RIPIO":0,"TIERRA":0,"VIASP":7,"VIPESOS":16,"ORIG_FID":37}},{"type":"Feature","id":2,"geometry":{"type":"LineString","coordinates":[[-62.75407654466224,-17.15160460129928],[-62.746102999999998,-17.141109],[-62.732878999999997,-17.12771],[-62.709564999999998,-17.112013999999999]]},"properties":{"FID":2,"VALUE":550,"RED_TIPO":"F","PAVIMENTO":53,"RIPIO":0,"TIERRA":0,"VIASP":25,"VIPESOS":1,"ORIG_FID":41}},{"type":"Feature","id":3,"geometry":{"type":"MultiLineString","coordinates":[[[-63.192777,-15.898101],[-63.197432999999997,-15.890658999999999],[-63.220036,-15.892734000000001],[-63.235453,-15.892792],[-63.263717,-15.892893000000001],[-63.287353000000003,-15.893969999999999],[-63.309947999999999,-15.898523000000001],[-63.338287999999999,-15.876732000000001],[-63.386732000000002,-15.831623],[-63.394455000000001,-15.826174999999999],[-63.397086999999999,-15.805792],[-63.407502000000001,-15.759072],[-63.414729000000001,-15.74666],[-63.428601,-15.744211],[-63.432907,-15.739687999999999],[-63.447642999999999,-15.729343],[-63.458931999999997,-15.731859],[-63.461652523996221,-15.730988543239532]],[[-63.464259742908006,-15.73015433948653],[-63.469723999999999,-15.728406],[-63.471625230508877,-15.724091244582636]],[[-63.474921304644397,-15.716610955545708],[-63.476200996989874,-15.713706752475945]],[[-63.481967222957664,-15.700620567178539],[-63.482638999999999,-15.699096000000001],[-63.492833284788475,-15.689270975960927]],[[-63.494644475348011,-15.687525390943827],[-63.497050000000002,-15.685207],[-63.510429000000002,-15.672307999999999],[-63.513038012196603,-15.670211707435573]],[[-63.522577611022122,-15.662546817976025],[-63.524262200364618,-15.661193281906936]],[[-63.527838375418057,-15.65831989205334],[-63.532029999999999,-15.654952],[-63.565429999999999,-15.638115000000001],[-63.578783999999999,-15.633667000000001],[-63.634262999999997,-15.605922],[-63.638615999999999,-15.599525],[-63.655444000000003,-15.541199000000001],[-63.668897000000001,-15.496238999999999],[-63.701977999999997,-15.452928999999999],[-63.714042999999997,-15.439947],[-63.743295000000003,-15.418601000000001],[-63.764712000000003,-15.401545],[-63.793152999999997,-15.366320999999999],[-63.820332999999998,-15.329471],[-63.836230999999998,-15.291798999999999],[-63.847932999999998,-15.276004],[-63.853102698760004,-15.269903722049222]],[[-63.853986713596747,-15.268860578828102],[-63.857216000000001,-15.26505],[-63.860892,-15.249675],[-63.864613401914887,-15.247448059983935]]]},"properties":{"FID":3,"VALUE":150,"RED_TIPO":"F","PAVIMENTO":0,"RIPIO":195,"TIERRA":0,"VIASP":20,"VIPESOS":2,"ORIG_FID":44}},{"type":"Feature","id":4,"geometry":{"type":"LineString","coordinates":[[-62.650443404646694,-16.26117857325664],[-62.650776,-16.261067000000001],[-62.673693,-16.257090999999999],[-62.711013000000001,-16.246482],[-62.726545000000002,-16.243554],[-62.73395,-16.238353],[-62.744092999999999,-16.229420000000001],[-62.755383000000002,-16.223116000000001],[-62.780633000000002,-16.217269000000002],[-62.785322000000001,-16.211675],[-62.796278999999998,-16.195999],[-62.805228999999997,-16.191178000000001],[-62.818021000000002,-16.192375999999999],[-62.823816999999998,-16.195781],[-62.859537000000003,-16.189233999999999],[-62.877654,-16.182417999999998],[-62.902631,-16.18122],[-62.917394000000002,-16.176425999999999],[-62.948028000000001,-16.176957000000002],[-62.958914,-16.171765000000001],[-62.967086999999999,-16.166184000000001],[-62.982604000000002,-16.165137000000001],[-63.003151000000003,-16.165984999999999],[-63.025632999999999,-16.167964999999999]]},"properties":{"FID":4,"VALUE":0,"RED_TIPO":"V","PAVIMENTO":0,"RIPIO":0,"TIERRA":0,"VIASP":7,"VIPESOS":16,"ORIG_FID":51}},{"type":"Feature","id":5,"geometry":{"type":"LineString","coordinates":[[-62.616191000000001,-16.887259],[-62.642721999999999,-16.886115],[-62.654389000000002,-16.834320000000002],[-62.663429999999998,-16.774877],[-62.672514999999997,-16.740231000000001],[-62.681567999999999,-16.705693],[-62.687539000000001,-16.662101],[-62.698647000000001,-16.615532000000002],[-62.699696000000003,-16.573284999999998],[-62.701639999999998,-16.533985999999999],[-62.702367000000002,-16.501189],[-62.703090000000003,-16.481033]]},"properties":{"FID":5,"VALUE":0,"RED_TIPO":"V","PAVIMENTO":0,"RIPIO":0,"TIERRA":0,"VIASP":7,"VIPESOS":16,"ORIG_FID":52}},{"type":"Feature","id":6,"geometry":{"type":"LineString","coordinates":[[-65.401692999999995,-16.949013999999998],[-65.390721999999997,-16.942257999999999],[-65.380449999999996,-16.928922],[-65.375499000000005,-16.910395000000001],[-65.368449999999996,-16.898067999999999],[-65.366230999999999,-16.887256000000001],[-65.359694000000005,-16.871316],[-65.352058,-16.851258999999999],[-65.349294999999998,-16.838903999999999],[-65.348695000000006,-16.829628],[-65.354982000000007,-16.809996000000002],[-65.358129000000005,-16.800695000000001],[-65.341880000000003,-16.772960000000001]]},"properties":{"FID":6,"VALUE":0,"RED_TIPO":"V","PAVIMENTO":0,"RIPIO":0,"TIERRA":0,"VIASP":7,"VIPESOS":16,"ORIG_FID":70}},{"type":"Feature","id":7,"geometry":{"type":"LineString","coordinates":[[-64.864446000000001,-17.045347],[-64.850992000000005,-17.041632],[-64.839735000000005,-17.028210999999999],[-64.830145999999999,-17.011551999999998],[-64.823919000000004,-16.995418000000001],[-64.819301999999993,-16.962579000000002],[-64.823661000000001,-16.934553000000001],[-64.825784999999996,-16.907612],[-64.825147000000001,-16.889301],[-64.825098999999994,-16.877988999999999],[-64.821693999999994,-16.866690999999999],[-64.816632999999996,-16.860247000000001],[-64.805969000000005,-16.851669999999999],[-64.804086999999996,-16.846124]]},"properties":{"FID":7,"VALUE":0,"RED_TIPO":"V","PAVIMENTO":0,"RIPIO":0,"TIERRA":0,"VIASP":7,"VIPESOS":16,"ORIG_FID":71}},{"type":"Feature","id":8,"geometry":{"type":"LineString","coordinates":[[-65.399322999999995,-16.966248],[-65.401979999999995,-16.955687999999999],[-65.401692999999995,-16.949013999999998],[-65.398501999999993,-16.937754000000002],[-65.398414000000002,-16.926037000000001],[-65.400622999999996,-16.904042],[-65.404825000000002,-16.892671],[-65.412234999999995,-16.880763999999999],[-65.418069000000003,-16.872990999999999],[-65.421149,-16.868744],[-65.432969,-16.860516000000001],[-65.440405999999996,-16.854834],[-65.453248000000002,-16.851611999999999],[-65.471399000000005,-16.844783],[-65.485821000000001,-16.840557],[-65.518923000000001,-16.828976000000001],[-65.540282000000005,-16.818864999999999],[-65.565442000000004,-16.808142],[-65.572157000000004,-16.806065],[-65.580889999999997,-16.793436],[-65.590389000000002,-16.771885000000001],[-65.597801000000004,-16.752376000000002],[-65.603618999999995,-16.743821000000001],[-65.613652000000002,-16.736449],[-65.626634999999993,-16.729863999999999],[-65.637531999999993,-16.725321999999998],[-65.650107000000006,-16.720358999999998],[-65.656766000000005,-16.712201],[-65.660071000000002,-16.705286000000001],[-65.670524,-16.698312999999999],[-65.678901999999994,-16.694597999999999],[-65.683887999999996,-16.687669],[-65.689269999999993,-16.677899],[-65.692954999999998,-16.666522000000001],[-65.696657000000002,-16.657170000000001],[-65.697030999999996,-16.651899],[-65.705368000000007,-16.643725],[-65.748441999999997,-16.618648],[-65.767662000000001,-16.605923000000001],[-65.768753000000004,-16.605242000000001]]},"properties":{"FID":8,"VALUE":0,"RED_TIPO":"F","PAVIMENTO":0,"RIPIO":63,"TIERRA":0,"VIASP":20,"VIPESOS":2,"ORIG_FID":73}},{"type":"Feature","id":9,"geometry":{"type":"MultiLineString","coordinates":[[[-62.709817295865022,-17.112611136083789],[-62.709564999999998,-17.112013999999999],[-62.709015338392348,-17.111966521860367]],[[-62.634662719987872,-17.061586545638782],[-62.624242000000002,-17.033579],[-62.624268999999998,-17.017772000000001],[-62.629038999999999,-16.998352000000001],[-62.639919999999996,-16.977374000000001],[-62.638787999999998,-16.953278999999998],[-62.634715,-16.931667000000001],[-62.634829000000003,-16.913575999999999],[-62.614637999999999,-16.921524000000002],[-62.618307999999999,-16.908097000000001],[-62.616191000000001,-16.887259],[-62.613908000000002,-16.876273999999999],[-62.609057999999997,-16.838587],[-62.600211000000002,-16.804116],[-62.583241999999998,-16.770527999999999],[-62.537699000000003,-16.695132999999998],[-62.509824987671905,-16.645017431331862]],[[-62.673084327073383,-16.459514201096418],[-62.675280999999998,-16.459278999999999],[-62.682020000000001,-16.463581000000001],[-62.694631000000001,-16.469906999999999],[-62.703090000000003,-16.481033],[-62.720388999999997,-16.490794000000001],[-62.730119999999999,-16.488014],[-62.735590000000002,-16.481914],[-62.759385000000002,-16.467746000000002],[-62.769772000000003,-16.453893999999998],[-62.777462999999997,-16.447407999999999],[-62.79222,-16.440111999999999],[-62.803772000000002,-16.427683999999999],[-62.813218999999997,-16.422343000000001],[-62.829419000000001,-16.421982],[-62.853456000000001,-16.413540999999999],[-62.856625000000001,-16.399532000000001],[-62.866866000000002,-16.371217999999999],[-62.874189999999999,-16.361350000000002],[-62.881680000000003,-16.350224000000001],[-62.890137000000003,-16.339327000000001],[-62.905293999999998,-16.330895999999999],[-62.916646999999998,-16.327307999999999],[-62.928863999999997,-16.318860000000001],[-62.935619000000003,-16.311599999999999],[-62.941163000000003,-16.295417],[-62.945878999999998,-16.276799],[-62.955193000000001,-16.261444999999998],[-62.974024,-16.247917000000001],[-62.983004000000001,-16.238482000000001],[-62.987743999999999,-16.220625999999999],[-62.996723000000003,-16.209427000000002],[-63.002493999999999,-16.200886000000001],[-63.025632999999999,-16.167964999999999],[-63.036183999999999,-16.151524999999999],[-63.050192000000003,-16.141470999999999],[-63.058002000000002,-16.128430999999999],[-63.063612999999997,-16.090707999999999],[-63.066394000000003,-16.076792999999999],[-63.076911000000003,-16.060286999999999],[-63.084125,-16.055768],[-63.092163999999997,-16.039591999999999],[-63.126350000000002,-15.985837],[-63.143113999999997,-15.972504000000001],[-63.152416000000002,-15.961600000000001],[-63.158109000000003,-15.952671],[-63.162300999999999,-15.934286999999999],[-63.165939000000002,-15.924852],[-63.192777,-15.898101]]]},"properties":{"FID":9,"VALUE":150,"RED_TIPO":"F","PAVIMENTO":246,"RIPIO":0,"TIERRA":0,"VIASP":25,"VIPESOS":1,"ORIG_FID":102}},{"type":"Feature","id":10,"geometry":{"type":"LineString","coordinates":[[-63.192777,-15.898101],[-63.191844000000003,-15.875220000000001],[-63.181621999999997,-15.862249],[-63.176552999999998,-15.845817],[-63.177132,-15.830401999999999],[-63.18289,-15.818769],[-63.183193000000003,-15.812357],[-63.181032000000002,-15.801125000000001],[-63.181316000000002,-15.794449999999999],[-63.177003999999997,-15.774654999999999],[-63.176485999999997,-15.766636999999999],[-63.176395999999997,-15.752565000000001],[-63.177552659972342,-15.739788044521617]]},"properties":{"FID":10,"VALUE":0,"RED_TIPO":"V","PAVIMENTO":0,"RIPIO":0,"TIERRA":0,"VIASP":7,"VIPESOS":16,"ORIG_FID":136}},{"type":"Feature","id":11,"geometry":{"type":"MultiLineString","coordinates":[[[-65.919787367262828,-17.101871012329148],[-65.924104,-17.091199],[-65.934519874050622,-17.079127095812037]],[[-65.936134224748344,-17.077256077897069],[-65.937978999999999,-17.075118]]]},"properties":{"FID":11,"VALUE":0,"RED_TIPO":"V","PAVIMENTO":0,"RIPIO":0,"TIERRA":0,"VIASP":0,"VIPESOS":0,"ORIG_FID":143}},{"type":"Feature","id":12,"geometry":{"type":"LineString","coordinates":[[-65.433764999999994,-16.984020000000001],[-65.425050999999996,-16.970265999999999],[-65.406127999999995,-16.966940999999998],[-65.399322999999995,-16.966248],[-65.376442999999995,-16.963915],[-65.365196999999995,-16.963528],[-65.358519000000001,-16.966335000000001],[-65.351855999999998,-16.971443000000001],[-65.344002000000003,-16.977249],[-65.338779000000002,-16.983038000000001],[-65.329986000000005,-16.991612],[-65.321931000000006,-17.003404],[-65.322725000000005,-17.014448999999999],[-65.319404000000006,-17.018844000000001],[-65.313682,-17.021872999999999],[-65.307705999999996,-17.022832000000001],[-65.304593999999994,-17.022621000000001],[-65.284665000000004,-17.012384000000001],[-65.283416000000003,-17.004334],[-65.275458999999998,-16.995173999999999],[-65.266081999999997,-16.988094],[-65.242576999999997,-16.985811000000002],[-65.230818999999997,-16.985341999999999],[-65.206182999999996,-16.984407999999998],[-65.180431999999996,-16.984016],[-65.147424000000001,-16.986892000000001],[-65.112156999999996,-16.986543999999999],[-65.069619000000003,-16.987304000000002],[-65.049503999999999,-16.993870000000001],[-65.051542999999995,-17.009115000000001],[-65.046833000000007,-17.017582999999998],[-65.012157000000002,-17.024217],[-64.958962999999997,-17.022852],[-64.914761999999996,-17.028974000000002],[-64.888504999999995,-17.041475999999999],[-64.864446000000001,-17.045347],[-64.865609000000006,-17.055038],[-64.874606999999997,-17.063618000000002],[-64.858574000000004,-17.088204000000001],[-64.846434000000002,-17.099582000000002],[-64.822884999999999,-17.1084],[-64.806585999999996,-17.116025],[-64.773976000000005,-17.128943],[-64.734105,-17.142464],[-64.715354000000005,-17.14311],[-64.698429000000004,-17.146657000000001],[-64.677283000000003,-17.154288000000001],[-64.648292999999995,-17.168918999999999],[-64.609634999999997,-17.18881],[-64.584861000000004,-17.199930999999999],[-64.535905999999997,-17.221],[-64.488136999999995,-17.236819000000001],[-64.465149999999994,-17.241523999999998],[-64.440928,-17.236342],[-64.429432000000006,-17.237528999999999],[-64.417339999999996,-17.243369999999999],[-64.391937999999996,-17.252143],[-64.365333000000007,-17.266729999999999],[-64.350211999999999,-17.273154000000002],[-64.327208999999996,-17.273191000000001],[-64.305103000000003,-17.269794999999998],[-64.293447999999998,-17.263968999999999],[-64.286589000000006,-17.262858999999999],[-64.279601999999997,-17.262744000000001],[-64.269513000000003,-17.264747],[-64.251531999999997,-17.268125999999999],[-64.244416999999999,-17.269252999999999],[-64.229146,-17.273902],[-64.211000999999996,-17.287879],[-64.197659000000002,-17.298005],[-64.190537000000006,-17.305620999999999],[-64.159796,-17.332027],[-64.138812000000001,-17.348655999999998],[-64.125094000000004,-17.355995],[-64.091547000000006,-17.373539999999998],[-64.077415999999999,-17.37659],[-64.07002,-17.377987000000001],[-64.060632999999996,-17.381516999999999],[-64.034717000000001,-17.391234000000001],[-64.028152000000006,-17.389918000000002],[-64.025114000000002,-17.388269999999999],[-64.022206999999995,-17.381549],[-64.021811,-17.377109999999998],[-64.018904000000006,-17.368867000000002],[-64.015997999999996,-17.367851999999999],[-64.006269000000003,-17.367564999999999],[-64.002262999999999,-17.367598999999998],[-63.985621000000002,-17.37153],[-63.968316999999999,-17.384338],[-63.941502,-17.390927000000001],[-63.902397999999998,-17.403213999999998],[-63.859901000000001,-17.406002000000001],[-63.848216999999998,-17.405749],[-63.835259999999998,-17.401973000000002],[-63.820596000000002,-17.399505000000001],[-63.811897999999999,-17.399170000000002],[-63.796888000000003,-17.401284],[-63.757807999999997,-17.407485000000001],[-63.724874,-17.412056],[-63.712006000000002,-17.425913999999999],[-63.709471000000001,-17.438638000000001],[-63.705183848885554,-17.445408821716576]]},"properties":{"FID":12,"VALUE":1565,"RED_TIPO":"F","PAVIMENTO":403,"RIPIO":0,"TIERRA":0,"VIASP":25,"VIPESOS":1,"ORIG_FID":165}},{"type":"Feature","id":13,"geometry":{"type":"LineString","coordinates":[[-65.8874633458217,-17.182057034511946],[-65.883533999999997,-17.191320000000001],[-65.877320999999995,-17.203042],[-65.873343000000006,-17.205684000000002],[-65.865847000000002,-17.205006000000001],[-65.851465000000005,-17.201360999999999],[-65.829902000000004,-17.207177999999999],[-65.820919000000004,-17.209852999999999],[-65.816301999999993,-17.197773000000002],[-65.811319999999995,-17.194785],[-65.798679000000007,-17.191431000000001],[-65.796546000000006,-17.183973000000002],[-65.790452999999999,-17.178515000000001],[-65.782781999999997,-17.176849000000001],[-65.775126999999998,-17.176914],[-65.758537000000004,-17.184846],[-65.753630999999999,-17.190082],[-65.742740999999995,-17.181082],[-65.732161000000005,-17.150974000000001],[-65.723037000000005,-17.148287],[-65.720118999999997,-17.143246000000001],[-65.716275999999993,-17.141897],[-65.71293,-17.142614999999999],[-65.710808,-17.146315000000001],[-65.707707999999997,-17.147722000000002],[-65.705312000000006,-17.139579000000001],[-65.701852000000002,-17.135338000000001],[-65.691260999999997,-17.128978],[-65.684736999999998,-17.122123999999999],[-65.681309999999996,-17.113403000000002],[-65.677109000000002,-17.098243],[-65.673247000000003,-17.09459],[-65.670553999999996,-17.087705],[-65.662548999999999,-17.075337000000001],[-65.653191000000007,-17.072648999999998],[-65.644515999999996,-17.065809999999999],[-65.644696999999994,-17.058902],[-65.656013000000002,-17.038784],[-65.657414000000003,-17.034372999999999],[-65.654225999999994,-17.025676000000001],[-65.648145999999997,-17.014213000000002],[-65.637307000000007,-17.005780000000001],[-65.612540999999993,-16.991237999999999],[-65.594331999999994,-16.988154000000002],[-65.588347999999996,-16.987739000000001],[-65.584766999999999,-16.988686999999999],[-65.567869999999999,-16.999865],[-65.564577,-17.006796000000001],[-65.550554000000005,-17.018642],[-65.544360999999995,-17.022141000000001],[-65.531944999999993,-17.025684999999999],[-65.526437000000001,-17.025034999999999],[-65.520960000000002,-17.028528000000001],[-65.505903000000004,-17.030939],[-65.498975999999999,-17.032599999999999],[-65.489401000000001,-17.032208000000001],[-65.475748999999993,-17.030692999999999],[-65.461083000000002,-17.021587],[-65.443306000000007,-17.012271999999999],[-65.441305,-17.000544000000001],[-65.439808999999997,-16.992497],[-65.433774999999997,-16.985401]]},"properties":{"FID":13,"VALUE":1265,"RED_TIPO":"F","PAVIMENTO":57,"RIPIO":0,"TIERRA":0,"VIASP":25,"VIPESOS":1,"ORIG_FID":167}},{"type":"Feature","id":14,"geometry":{"type":"LineString","coordinates":[[-63.605716000000001,-17.116299999999999],[-63.594245999999998,-17.116627000000001],[-63.587034000000003,-17.135712999999999],[-63.581288999999998,-17.146782000000002],[-63.577936999999999,-17.153238999999999],[-63.576991999999997,-17.163844000000001],[-63.577017508030458,-17.164459220847327]]},"properties":{"FID":14,"VALUE":0,"RED_TIPO":"V","PAVIMENTO":0,"RIPIO":0,"TIERRA":0,"VIASP":0,"VIPESOS":0,"ORIG_FID":234}},{"type":"Feature","id":15,"geometry":{"type":"LineString","coordinates":[[-63.588177999999999,-16.997496999999999],[-63.581724999999999,-16.998301999999999],[-63.571455,-17.000582999999999],[-63.564559000000003,-17.00713],[-63.562862000000003,-17.013546000000002],[-63.552314000000003,-17.019546999999999],[-63.532173,-17.030622999999999],[-63.523615999999997,-17.035874],[-63.520668000000001,-17.041232999999998],[-63.516840000000002,-17.051378],[-63.507254000000003,-17.063369999999999],[-63.496702999999997,-17.071211000000002],[-63.489989000000001,-17.076746],[-63.486154999999997,-17.082740999999999],[-63.467452999999999,-17.104876000000001],[-63.458213999999998,-17.111134],[-63.443463000000001,-17.121476999999999],[-63.437224999999998,-17.127471],[-63.432429999999997,-17.135770999999998],[-63.431474999999999,-17.144531000000001],[-63.433405999999998,-17.159284],[-63.432931000000004,-17.167121999999999],[-63.425284501192657,-17.188684869877086]]},"properties":{"FID":15,"VALUE":0,"RED_TIPO":"V","PAVIMENTO":0,"RIPIO":0,"TIERRA":0,"VIASP":0,"VIPESOS":0,"ORIG_FID":235}},{"type":"Feature","id":16,"geometry":{"type":"LineString","coordinates":[[-62.634829000000003,-16.913575999999999],[-62.645471999999998,-16.908867000000001],[-62.657516999999999,-16.89939],[-62.670788999999999,-16.885470999999999],[-62.799050999999999,-16.766715999999999],[-62.858665999999999,-16.709399999999999],[-62.884701,-16.675166999999998],[-63.088369999999998,-16.45626],[-63.147089000000001,-16.393018000000001],[-63.284905000000002,-16.336948],[-63.287354999999998,-16.305403999999999],[-63.289982000000002,-16.272143]]},"properties":{"FID":16,"VALUE":0,"RED_TIPO":"V","PAVIMENTO":0,"RIPIO":0,"TIERRA":0,"VIASP":0,"VIPESOS":0,"ORIG_FID":253}},{"type":"Feature","id":17,"geometry":{"type":"LineString","coordinates":[[-63.759780999999997,-16.476096999999999],[-63.708078999999998,-16.457060999999999],[-63.687126999999997,-16.468883000000002],[-63.665927000000003,-16.480478000000002],[-63.652259999999998,-16.496503000000001],[-63.636907000000001,-16.513173999999999],[-63.631549,-16.526084000000001],[-63.625328000000003,-16.540787999999999],[-63.623935000000003,-16.553730999999999],[-63.619514000000002,-16.566993],[-63.608586000000003,-16.578564],[-63.586677999999999,-16.591090000000001],[-63.538572000000002,-16.567616000000001]]},"properties":{"FID":17,"VALUE":0,"RED_TIPO":"V","PAVIMENTO":0,"RIPIO":0,"TIERRA":0,"VIASP":0,"VIPESOS":0,"ORIG_FID":266}},{"type":"Feature","id":18,"geometry":{"type":"LineString","coordinates":[[-63.922600000000003,-16.980734999999999],[-63.925657000000001,-16.968814999999999],[-63.928722999999998,-16.958814],[-63.928094999999999,-16.945443999999998],[-63.920489000000003,-16.939406999999999],[-63.887599999999999,-16.937704],[-63.853394999999999,-16.940182],[-63.827902999999999,-16.945668999999999],[-63.809052000000001,-16.948678000000001],[-63.771929999999998,-16.949832000000001],[-63.746977999999999,-16.949062999999999],[-63.732346999999997,-16.948730999999999],[-63.707939000000003,-16.950253],[-63.692841999999999,-16.950389999999999],[-63.680852000000002,-16.956858],[-63.676335999999999,-16.960253999999999],[-63.658780999999998,-16.966911],[-63.639850000000003,-16.975906999999999],[-63.626517,-16.979925000000001],[-63.614865000000002,-16.975770000000001],[-63.609869000000003,-16.984940999999999],[-63.598235000000003,-16.994498],[-63.588177999999999,-16.997496999999999]]},"properties":{"FID":18,"VALUE":0,"RED_TIPO":"V","PAVIMENTO":0,"RIPIO":0,"TIERRA":0,"VIASP":0,"VIPESOS":0,"ORIG_FID":282}},{"type":"Feature","id":19,"geometry":{"type":"LineString","coordinates":[[-63.982584000000003,-17.248003000000001],[-63.942624000000002,-17.222286]]},"properties":{"FID":19,"VALUE":0,"RED_TIPO":"V","PAVIMENTO":0,"RIPIO":0,"TIERRA":0,"VIASP":0,"VIPESOS":0,"ORIG_FID":283}},{"type":"Feature","id":20,"geometry":{"type":"LineString","coordinates":[[-63.951168000000003,-17.290800000000001],[-63.925973999999997,-17.272580000000001]]},"properties":{"FID":20,"VALUE":0,"RED_TIPO":"V","PAVIMENTO":0,"RIPIO":0,"TIERRA":0,"VIASP":0,"VIPESOS":0,"ORIG_FID":284}},{"type":"Feature","id":21,"geometry":{"type":"LineString","coordinates":[[-63.830123,-17.185032],[-63.826824999999999,-17.361791]]},"properties":{"FID":21,"VALUE":0,"RED_TIPO":"V","PAVIMENTO":0,"RIPIO":0,"TIERRA":0,"VIASP":0,"VIPESOS":0,"ORIG_FID":285}},{"type":"Feature","id":22,"geometry":{"type":"LineString","coordinates":[[-64.083173000000002,-17.061138],[-64.077162999999999,-17.066510999999998],[-64.074611000000004,-17.074307999999998],[-64.074489,-17.080763000000001],[-64.073438999999993,-17.085356999999998],[-64.069041999999996,-17.088968999999999],[-64.050601999999998,-17.097404999999998],[-64.038945999999996,-17.103193999999998],[-64.031154999999998,-17.108128000000001],[-64.029146999999995,-17.111837999999999],[-64.028591000000006,-17.116385000000001],[-64.029304999999994,-17.129311999999999],[-64.029617999999999,-17.138082000000001],[-64.030018999999996,-17.142240000000001],[-64.029904000000002,-17.148233999999999],[-64.029317000000006,-17.153759000000001],[-64.029201999999998,-17.159752999999998],[-64.026218,-17.164773],[-64.020820999999998,-17.170210999999998],[-64.003460000000004,-17.175561999999999],[-63.982424000000002,-17.202359999999999],[-64.001707999999994,-17.222132999999999],[-63.927577999999997,-17.322828999999999],[-63.930987000000002,-17.330701999999999],[-63.886558000000001,-17.404119000000001]]},"properties":{"FID":22,"VALUE":0,"RED_TIPO":"V","PAVIMENTO":0,"RIPIO":0,"TIERRA":0,"VIASP":0,"VIPESOS":0,"ORIG_FID":286}},{"type":"Feature","id":23,"geometry":{"type":"LineString","coordinates":[[-64.304095000000004,-17.219812000000001],[-64.303484999999995,-17.213835],[-64.300696000000002,-17.208254],[-64.296481,-17.201727000000002],[-64.292298000000002,-17.193355],[-64.289128000000005,-17.182233],[-64.286961000000005,-17.168821000000001],[-64.286752000000007,-17.153597000000001],[-64.287397999999996,-17.144383000000001],[-64.291542000000007,-17.127848],[-64.291201000000001,-17.120000999999998],[-64.285610000000005,-17.10604],[-64.284216000000001,-17.095441000000001],[-64.278683999999998,-17.081204],[-64.274198999999996,-17.075437999999998],[-64.269480999999999,-17.070284999999998],[-64.259450000000001,-17.066427000000001],[-64.241635000000002,-17.067509999999999],[-64.208392000000003,-17.070636],[-64.200706999999994,-17.070042999999998],[-64.195418000000004,-17.069953000000002],[-64.180351000000002,-17.078458000000001],[-64.162904999999995,-17.085536999999999],[-64.155210999999994,-17.085404],[-64.143061000000003,-17.092113000000001],[-64.134809000000004,-17.096119999999999],[-64.126667999999995,-17.094132999999999],[-64.117222999999996,-17.084744000000001],[-64.107254999999995,-17.077649999999998],[-64.094299000000007,-17.076039000000002],[-64.088082999999997,-17.074083999999999],[-64.085783000000006,-17.068508999999999],[-64.081674000000007,-17.056905],[-64.074618999999998,-17.048477999999999],[-64.068037000000004,-17.040520000000001],[-64.063885999999997,-17.031220999999999],[-64.057749999999999,-17.025115],[-64.048811000000001,-17.014809],[-64.039610999999994,-17.005203999999999],[-64.027924999999996,-17.000961],[-64.003231999999997,-16.999476999999999],[-63.978098000000003,-16.998201999999999],[-63.935327000000001,-16.998193000000001],[-63.913279000000003,-16.999670999999999],[-63.903576999999999,-17.001365],[-63.900838,-16.999571]]},"properties":{"FID":23,"VALUE":0,"RED_TIPO":"V","PAVIMENTO":0,"RIPIO":0,"TIERRA":0,"VIASP":0,"VIPESOS":0,"ORIG_FID":287}},{"type":"Feature","id":24,"geometry":{"type":"LineString","coordinates":[[-64.354748999999998,-17.203023999999999],[-64.337987999999996,-17.207211999999998],[-64.331479999999999,-17.207877],[-64.309030000000007,-17.217575],[-64.304095000000004,-17.219812000000001],[-64.297653999999994,-17.222315999999999],[-64.292744999999996,-17.226797999999999],[-64.283494000000005,-17.237400000000001],[-64.278795000000002,-17.241363],[-64.275051000000005,-17.246589],[-64.270922999999996,-17.255669999999999],[-64.269513000000003,-17.264747]]},"properties":{"FID":24,"VALUE":0,"RED_TIPO":"V","PAVIMENTO":0,"RIPIO":0,"TIERRA":0,"VIASP":0,"VIPESOS":0,"ORIG_FID":288}},{"type":"Feature","id":25,"geometry":{"type":"LineString","coordinates":[[-63.904153999999998,-17.205812999999999],[-63.866194999999998,-17.204015999999999],[-63.863903000000001,-17.241827000000001],[-63.86054,-17.241834000000001],[-63.859144000000001,-17.257511999999998],[-63.850501000000001,-17.259374000000001],[-63.848851000000003,-17.268056000000001],[-63.846065000000003,-17.282713999999999],[-63.843398999999998,-17.296731999999999],[-63.842467999999997,-17.307338000000001],[-63.839734999999997,-17.361284000000001],[-63.826824999999999,-17.361791],[-63.825859000000001,-17.400390999999999]]},"properties":{"FID":25,"VALUE":0,"RED_TIPO":"V","PAVIMENTO":0,"RIPIO":0,"TIERRA":0,"VIASP":0,"VIPESOS":0,"ORIG_FID":360}},{"type":"Feature","id":26,"geometry":{"type":"LineString","coordinates":[[-63.309947999999999,-15.898523000000001],[-63.314771999999998,-15.90677],[-63.322766000000001,-15.911640999999999],[-63.328758000000001,-15.916755],[-63.337128,-15.917718000000001],[-63.346992999999998,-15.921186000000001],[-63.355251000000003,-15.926997],[-63.359585000000003,-15.930629],[-63.363294000000003,-15.933736],[-63.369990999999999,-15.934506000000001],[-63.375821999999999,-15.929525],[-63.381796999999999,-15.927006],[-63.389082999999999,-15.927828],[-63.396479999999997,-15.928663999999999],[-63.405158,-15.929012],[-63.420515999999999,-15.928409],[-63.427182000000002,-15.931979999999999],[-63.432865,-15.939831],[-63.440480000000001,-15.951074],[-63.445098999999999,-15.957891999999999],[-63.449236999999997,-15.964],[-63.450631999999999,-15.972811999999999],[-63.448295999999999,-15.98113],[-63.438791000000002,-15.987178],[-63.434531999999997,-15.993199000000001],[-63.432177000000003,-15.998286999999999],[-63.427430000000001,-16.002464],[-63.420780000000001,-16.007574000000002],[-63.417462,-16.011282000000001],[-63.416536999999998,-16.016362999999998],[-63.417039000000003,-16.020513000000001],[-63.424247999999999,-16.029243999999998],[-63.425251000000003,-16.037545000000001],[-63.424812000000003,-16.044007000000001],[-63.426752999999998,-16.049534000000001],[-63.429648999999998,-16.055057000000001],[-63.428719000000001,-16.059214999999998],[-63.428747000000001,-16.063828999999998],[-63.427802999999997,-16.06568],[-63.423526000000003,-16.068932],[-63.423071,-16.072624999999999],[-63.422618,-16.076781],[-63.417389,-16.080499],[-63.410758000000001,-16.089300000000001],[-63.407935999999999,-16.096696999999999],[-63.404251000000002,-16.119788],[-63.401952000000001,-16.135027000000001],[-63.402549,-16.155788999999999],[-63.402132000000002,-16.166404],[-63.400246000000003,-16.170566000000001],[-63.394132999999997,-16.187208999999999],[-63.388004000000002,-16.201082],[-63.383713,-16.202487999999999],[-63.377979000000003,-16.202054],[-63.364598000000001,-16.200735000000002],[-63.358384000000001,-16.199842],[-63.347887,-16.201737000000001],[-63.334513999999999,-16.201799999999999],[-63.329749999999997,-16.204129999999999],[-63.321185,-16.210167999999999],[-63.315489999999997,-16.217116000000001],[-63.312629000000001,-16.218052],[-63.307855000000004,-16.218534999999999],[-63.302100000000003,-16.218577],[-63.302131000000003,-16.219944999999999],[-63.302649000000002,-16.227788],[-63.302683000000002,-16.234248000000001],[-63.303195000000002,-16.240704999999998],[-63.306077999999999,-16.243922000000001],[-63.299393000000002,-16.244413999999999],[-63.294604,-16.242128000000001],[-63.292208000000002,-16.240755],[-63.288386000000003,-16.240772],[-63.284576000000001,-16.243096000000001],[-63.280303000000004,-16.248190999999998],[-63.279370999999998,-16.252808999999999],[-63.279381000000001,-16.254655],[-63.283695000000002,-16.257404999999999],[-63.287045999999997,-16.258773999999999],[-63.288967,-16.260611000000001],[-63.289946,-16.265221],[-63.289982000000002,-16.272143]]},"properties":{"FID":26,"VALUE":0,"RED_TIPO":" ","PAVIMENTO":0,"RIPIO":0,"TIERRA":0,"VIASP":0,"VIPESOS":0,"ORIG_FID":366}}]}